[{"OBJECT_NAME":"STARLINK-30463","OBJECT_ID":"2023-146U","EPOCH":"2026-03-09T02:48:56.187936","MEAN_MOTION":15.02533398,"ECCENTRICITY":0.00011113,"INCLINATION":43.004,"RA_OF_ASC_NODE":316.1563,"ARG_OF_PERICENTER":265.2503,"MEAN_ANOMALY":94.8213,"EPHEMERIS_TYPE":0,"CLASSIFICATION_TYPE":"U","NORAD_CAT_ID":57909,"ELEMENT_SET_NO":999,"REV_AT_EPOCH":13592,"BSTAR":-2.9993693e-5,"MEAN_MOTION_DOT":-6.09e-6,"MEAN_MOTION_DDOT":0},{"OBJECT_NAME":"CZ-2C DEB","OBJECT_ID":"2026-009C","EPOCH":"2026-03-09T19:20:16.840608","MEAN_MOTION":15.15876918,"ECCENTRICITY":0.01015815,"INCLINATION":97.2202,"RA_OF_ASC_NODE":140.8028,"ARG_OF_PERICENTER":36.3959,"MEAN_ANOMALY":324.4125,"EPHEMERIS_TYPE":0,"CLASSIFICATION_TYPE":"U","NORAD_CAT_ID":67586,"ELEMENT_SET_NO":999,"REV_AT_EPOCH":810,"BSTAR":0.0025681251,"MEAN_MOTION_DOT":0.0005635,"MEAN_MOTION_DDOT":0}]
